OBJECT_NAME,OBJECT_ID,EPOCH,MEAN_MOTION,ECCENTRICITY,INCLINATION,RA_OF_ASC_NODE,ARG_OF_PERICENTER,MEAN_ANOMALY,EPHEMERIS_TYPE,CLASSIFICATION_TYPE,NORAD_CAT_ID,ELEMENT_SET_NO,REV_AT_EPOCH,BSTAR,MEAN_MOTION_DOT,MEAN_MOTION_DDOT
SWARM A,2013-067B,2026-07-07T03:42:38.184768,15.51348395,.0003259,87.3308,48.8185,96.0368,264.1264,0,U,39452,999,70934,.13218E-3,.7807E-4,0
SWARM C,2013-067C,2026-07-07T02:09:36.477792,15.51347015,.0003254,87.3308,47.4235,96.2216,263.9416,0,U,39453,999,70929,.13744E-3,.8116E-4,0
BRITE-CA1 (TORONTO),2014-033L,2026-07-06T21:03:33.808032,14.72711122,.0077849,97.9763,316.4452,213.0292,146.6041,0,U,40020,999,64511,.14459E-3,.913E-5,0
OCO 2,2014-035A,2026-07-07T03:19:02.049024,14.57127896,.0001478,98.2020,129.1279,82.1085,278.0281,0,U,40059,999,63895,.88884E-4,.355E-5,0
BRITE-PL2 (HEWELIUSZ),2014-049B,2026-07-06T20:31:05.653056,14.94667012,.0014891,97.9109,300.0087,49.1461,311.1047,0,U,40119,999,64438,.19243E-3,.2031E-4,0
MMS 1,2015-011A,2026-07-07T06:00:02.000160,0.28328218,.8308698,72.4740,348.5543,167.9157,185.2082,0,U,40482,999,133,0,-.658E-5,0
MMS 2,2015-011B,2026-07-07T06:00:02.000160,0.28328446,.8311765,72.4816,348.5531,167.9191,185.1997,0,U,40483,999,133,0,-.659E-5,0
MMS 3,2015-011C,2026-07-07T06:00:02.000160,0.28328425,.8310136,72.4814,348.5650,167.9267,185.1740,0,U,40484,999,130,0,-.658E-5,0
MMS 4,2015-011D,2026-07-07T06:00:02.000160,0.28328473,.8310069,72.4772,348.5484,167.9365,185.1680,0,U,40485,999,136,0,-.658E-5,0
ASTROSAT,2015-052A,2026-07-06T01:29:49.803072,14.82542388,.0008506,5.9982,19.4758,302.4435,57.4871,0,U,40930,999,58263,.13877E-3,.1814E-4,0
DAMPE,2015-078A,2026-07-07T04:05:46.370976,15.30840683,.0012461,97.4563,193.7365,13.7865,346.3713,0,U,41173,999,58760,.53405E-4,.1516E-4,0
PISAT,2016-059B,2026-07-06T23:10:14.753856,14.69019349,.0029984,97.8184,187.5687,140.0298,220.3123,0,U,41784,999,52264,.15272E-3,.854E-5,0
HXMT (HUIYAN),2017-034A,2026-07-07T03:07:21.518688,15.18637967,.0032757,43.0142,71.9811,271.6353,88.0744,0,U,42758,999,50069,.15912E-3,.3156E-4,0
FLYING LAPTOP,2017-042G,2026-07-07T04:22:02.280576,15.01275179,.0019945,97.4782,342.9572,57.8207,302.4948,0,U,42831,999,48945,.13928E-3,.174E-4,0
ZHANGHENG 1-01 (CSES-1),2018-015C,2026-07-07T04:55:26.235264,15.21088786,.0018105,97.6891,354.2655,193.2398,166.8364,0,U,43194,999,46768,.26101E-3,.5754E-4,0
SALSAT,2020-068K,2026-07-06T23:06:33.434208,15.30092809,.0008388,97.8858,192.2352,224.1445,135.9125,0,U,46495,999,31838,.20799E-3,.5977E-4,0
IXPE,2021-121A,2026-07-07T04:00:03.000096,15.10443345,.0007087,0.2280,166.1956,24.2714,145.4114,0,U,49954,999,572,.52475E-3,.9825E-4,0
