SWARM A                 
1 39452U 13067B   26188.15460862  .00007807  00000+0  13218-3 0  9996
2 39452  87.3308  48.8185 0003259  96.0368 264.1264 15.51348395709341
SWARM C                 
1 39453U 13067C   26188.09000553  .00008116  00000+0  13744-3 0  9995
2 39453  87.3308  47.4235 0003254  96.2216 263.9416 15.51347015709290
BRITE-CA1 (TORONTO)     
1 40020U 14033L   26187.87747463  .00000913  00000+0  14459-3 0  9995
2 40020  97.9763 316.4452 0077849 213.0292 146.6041 14.72711122645115
OCO 2                   
1 40059U 14035A   26188.13821816  .00000355  00000+0  88884-4 0  9998
2 40059  98.2020 129.1279 0001478  82.1085 278.0281 14.57127896638955
BRITE-PL2 (HEWELIUSZ)   
1 40119U 14049B   26187.85492654  .00002031  00000+0  19243-3 0  9997
2 40119  97.9109 300.0087 0014891  49.1461 311.1047 14.94667012644380
MMS 1                   
1 40482U 15011A   26188.25002315 -.00000658  00000+0  00000+0 0  9997
2 40482  72.4740 348.5543 8308698 167.9157 185.2082  0.28328218  1331
MMS 2                   
1 40483U 15011B   26188.25002315 -.00000659  00000+0  00000+0 0  9999
2 40483  72.4816 348.5531 8311765 167.9191 185.1997  0.28328446  1337
MMS 3                   
1 40484U 15011C   26188.25002315 -.00000658  00000+0  00000+0 0  9999
2 40484  72.4814 348.5650 8310136 167.9267 185.1740  0.28328425  1303
MMS 4                   
1 40485U 15011D   26188.25002315 -.00000658  00000+0  00000+0 0  9990
2 40485  72.4772 348.5484 8310069 167.9365 185.1680  0.28328473  1368
ASTROSAT                
1 40930U 15052A   26187.06238198  .00001814  00000+0  13877-3 0  9992
2 40930   5.9982  19.4758 0008506 302.4435  57.4871 14.82542388582636
DAMPE                   
1 41173U 15078A   26188.17067559  .00001516  00000+0  53405-4 0  9995
2 41173  97.4563 193.7365 0012461  13.7865 346.3713 15.30840683587601
PISAT                   
1 41784U 16059B   26187.96544854  .00000854  00000+0  15272-3 0  9990
2 41784  97.8184 187.5687 0029984 140.0298 220.3123 14.69019349522649
HXMT (HUIYAN)           
1 42758U 17034A   26188.13011017  .00003156  00000+0  15912-3 0  9995
2 42758  43.0142  71.9811 0032757 271.6353  88.0744 15.18637967500694
FLYING LAPTOP           
1 42831U 17042G   26188.18197084  .00001740  00000+0  13928-3 0  9992
2 42831  97.4782 342.9572 0019945  57.8207 302.4948 15.01275179489454
ZHANGHENG 1-01 (CSES-1) 
1 43194U 18015C   26188.20516476  .00005754  00000+0  26101-3 0  9995
2 43194  97.6891 354.2655 0018105 193.2398 166.8364 15.21088786467684
SALSAT                  
1 46495U 20068K   26187.96288697  .00005977  00000+0  20799-3 0  9990
2 46495  97.8858 192.2352 0008388 224.1445 135.9125 15.30092809318384
IXPE                    
1 49954U 21121A   26188.16670139  .00009825  00000+0  52475-3 0  9995
2 49954   0.2280 166.1956 0007087  24.2714 145.4114 15.10443345  5725
